{"type": "FeatureCollection", "features": [{"type": "Feature", "properties": {"norad_id": 66380, "name": "STARLINK-35139", "group": "last-30-days", "lat": 31.73296142464176, "lon": 71.73423870875479, "alt_km": 443.3453835015107, "timestamp": "2025-12-09T14:52:24.939917+00:00", "meta": {"OBJECT_NAME": "STARLINK-35139", "OBJECT_ID": "2025-257A", "EPOCH": "2025-12-09T03:22:02.417664", "MEAN_MOTION": 15.39550209, "ECCENTRICITY": 0.00010138, "INCLINATION": 53.1598, "RA_OF_ASC_NODE": 281.6156, "ARG_OF_PERICENTER": 50.3281, "MEAN_ANOMALY": 309.7813, "EPHEMERIS_TYPE": 0, "CLASSIFICATION_TYPE": "U", "NORAD_CAT_ID": 66380, "ELEMENT_SET_NO": 999, "REV_AT_EPOCH": 575, "BSTAR": 0.0012381042, "MEAN_MOTION_DOT": 0.0004933, "MEAN_MOTION_DDOT": 0}, "tle": {"line1": "1 66380U 25257A   25343.14030576  .00049330  00000+0  12381-2 0  9992", "line2": "2 66380  53.1598 281.6156 0001013  50.3281 309.7813 15.39550209  5756"}}, "geometry": {"type": "Point", "coordinates": [71.73423870875479, 31.73296142464176]}}, {"type": "Feature", "properties": {"norad_id": 66381, "name": "STARLINK-35158", "group": "last-30-days", "lat": 30.161853422836895, "lon": 73.52493145967674, "alt_km": 441.4858687967562, "timestamp": "2025-12-09T14:52:24.939971+00:00", "meta": {"OBJECT_NAME": "STARLINK-35158", "OBJECT_ID": "2025-257B", "EPOCH": "2025-12-09T01:48:05.870016", "MEAN_MOTION": 15.39706236, "ECCENTRICITY": 0.00020915, "INCLINATION": 53.1605, "RA_OF_ASC_NODE": 281.9206, "ARG_OF_PERICENTER": 124.9586, "MEAN_ANOMALY": 235.1616, "EPHEMERIS_TYPE": 0, "CLASSIFICATION_TYPE": "U", "NORAD_CAT_ID": 66381, "ELEMENT_SET_NO": 999, "REV_AT_EPOCH": 580, "BSTAR": 0.0034761284, "MEAN_MOTION_DOT": 0.00141658, "MEAN_MOTION_DDOT": 0}, "tle": {"line1": "1 66381U 25257B   25343.07506794  .00141658  00000+0  34761-2 0  9997", "line2": "2 66381  53.1605 281.9206 0002091 124.9586 235.1616 15.39706236  5800"}}, "geometry": {"type": "Point", "coordinates": [73.52493145967674, 30.161853422836895]}}, {"type": "Feature", "properties": {"norad_id": 66382, "name": "STARLINK-35639", "group": "last-30-days", "lat": 11.961514883151757, "lon": 90.1643039523167, "alt_km": 445.8442201305015, "timestamp": "2025-12-09T14:52:24.939988+00:00", "meta": {"OBJECT_NAME": "STARLINK-35639", "OBJECT_ID": "2025-257C", "EPOCH": "2025-12-09T03:15:19.986336", "MEAN_MOTION": 15.39660835, "ECCENTRICITY": 0.00011973, "INCLINATION": 53.1607, "RA_OF_ASC_NODE": 281.585, "ARG_OF_PERICENTER": 89.718, "MEAN_ANOMALY": 270.3963, "EPHEMERIS_TYPE": 0, "CLASSIFICATION_TYPE": "U", "NORAD_CAT_ID": 66382, "ELEMENT_SET_NO": 999, "REV_AT_EPOCH": 581, "BSTAR": 0.0022160725, "MEAN_MOTION_DOT": 0.00089407, "MEAN_MOTION_DDOT": 0}, "tle": {"line1": "1 66382U 25257C   25343.13564799  .00089407  00000+0  22161-2 0  9998", "line2": "2 66382  53.1607 281.5850 0001197  89.7180 270.3963 15.39660835  5819"}}, "geometry": {"type": "Point", "coordinates": [90.1643039523167, 11.961514883151757]}}, {"type": "Feature", "properties": {"norad_id": 66383, "name": "STARLINK-35690", "group": "last-30-days", "lat": -8.485930243011325, "lon": 105.67370711239309, "alt_km": 449.101898172622, "timestamp": "2025-12-09T14:52:24.940002+00:00", "meta": {"OBJECT_NAME": "STARLINK-35690", "OBJECT_ID": "2025-257D", "EPOCH": "2025-12-09T03:08:39.440256", "MEAN_MOTION": 15.39621685, "ECCENTRICITY": 0.00012366, "INCLINATION": 53.161, "RA_OF_ASC_NODE": 281.5551, "ARG_OF_PERICENTER": 87.6681, "MEAN_ANOMALY": 272.4465, "EPHEMERIS_TYPE": 0, "CLASSIFICATION_TYPE": "U", "NORAD_CAT_ID": 66383, "ELEMENT_SET_NO": 999, "REV_AT_EPOCH": 581, "BSTAR": 0.0019585336, "MEAN_MOTION_DOT": 0.00078758, "MEAN_MOTION_DDOT": 0}, "tle": {"line1": "1 66383U 25257D   25343.13101204  .00078758  00000+0  19585-2 0  9990", "line2": "2 66383  53.1610 281.5551 0001236  87.6681 272.4465 15.39621685  5819"}}, "geometry": {"type": "Point", "coordinates": [105.67370711239309, -8.485930243011325]}}, {"type": "Feature", "properties": {"norad_id": 66384, "name": "STARLINK-35662", "group": "last-30-days", "lat": -9.969331993005031, "lon": 106.82143506165283, "alt_km": 449.1640522503867, "timestamp": "2025-12-09T14:52:24.940037+00:00", "meta": {"OBJECT_NAME": "STARLINK-35662", "OBJECT_ID": "2025-257E", "EPOCH": "2025-12-09T03:08:10.703616", "MEAN_MOTION": 15.39635056, "ECCENTRICITY": 0.00010276, "INCLINATION": 53.1603, "RA_OF_ASC_NODE": 281.5542, "ARG_OF_PERICENTER": 91.0689, "MEAN_ANOMALY": 269.0434, "EPHEMERIS_TYPE": 0, "CLASSIFICATION_TYPE": "U", "NORAD_CAT_ID": 66384, "ELEMENT_SET_NO": 999, "REV_AT_EPOCH": 581, "BSTAR": 0.0020942978, "MEAN_MOTION_DOT": 0.00084344, "MEAN_MOTION_DDOT": 0}, "tle": {"line1": "1 66384U 25257E   25343.13067944  .00084344  00000+0  20943-2 0  9991", "line2": "2 66384  53.1603 281.5542 0001027  91.0689 269.0434 15.39635056  5812"}}, "geometry": {"type": "Point", "coordinates": [106.82143506165283, -9.969331993005031]}}, {"type": "Feature", "properties": {"norad_id": 66385, "name": "STARLINK-35659", "group": "last-30-days", "lat": 10.477421466513684, "lon": 91.33188085385851, "alt_km": 446.3534136066819, "timestamp": "2025-12-09T14:52:24.940050+00:00", "meta": {"OBJECT_NAME": "STARLINK-35659", "OBJECT_ID": "2025-257F", "EPOCH": "2025-12-09T03:14:51.196128", "MEAN_MOTION": 15.39674603, "ECCENTRICITY": 0.00013084, "INCLINATION": 53.1604, "RA_OF_ASC_NODE": 281.5848, "ARG_OF_PERICENTER": 68.8965, "MEAN_ANOMALY": 291.218, "EPHEMERIS_TYPE": 0, "CLASSIFICATION_TYPE": "U", "NORAD_CAT_ID": 66385, "ELEMENT_SET_NO": 999, "REV_AT_EPOCH": 581, "BSTAR": 0.0022301069, "MEAN_MOTION_DOT": 0.00090024, "MEAN_MOTION_DDOT": 0}, "tle": {"line1": "1 66385U 25257F   25343.13531477  .00090024  00000+0  22301-2 0  9991", "line2": "2 66385  53.1604 281.5848 0001308  68.8965 291.2180 15.39674603  5810"}}, "geometry": {"type": "Point", "coordinates": [91.33188085385851, 10.477421466513684]}}, {"type": "Feature", "properties": {"norad_id": 66386, "name": "STARLINK-35651", "group": "last-30-days", "lat": -28.326473002121965, "lon": 123.03794050901116, "alt_km": 451.03776834666405, "timestamp": "2025-12-09T14:52:24.940062+00:00", "meta": {"OBJECT_NAME": "STARLINK-35651", "OBJECT_ID": "2025-257G", "EPOCH": "2025-12-09T03:01:58.104480", "MEAN_MOTION": 15.39623506, "ECCENTRICITY": 0.00010349, "INCLINATION": 53.16, "RA_OF_ASC_NODE": 281.527, "ARG_OF_PERICENTER": 97.4058, "MEAN_ANOMALY": 262.7065, "EPHEMERIS_TYPE": 0, "CLASSIFICATION_TYPE": "U", "NORAD_CAT_ID": 66386, "ELEMENT_SET_NO": 999, "REV_AT_EPOCH": 581, "BSTAR": 0.0019748183, "MEAN_MOTION_DOT": 0.00079427, "MEAN_MOTION_DDOT": 0}, "tle": {"line1": "1 66386U 25257G   25343.12636695  .00079427  00000+0  19748-2 0  9994", "line2": "2 66386  53.1600 281.5270 0001034  97.4058 262.7065 15.39623506  5814"}}, "geometry": {"type": "Point", "coordinates": [123.03794050901116, -28.326473002121965]}}, {"type": "Feature", "properties": {"norad_id": 66387, "name": "STARLINK-35661", "group": "last-30-days", "lat": -29.638168880975897, "lon": 124.44820412584963, "alt_km": 451.3319175092611, "timestamp": "2025-12-09T14:52:24.940073+00:00", "meta": {"OBJECT_NAME": "STARLINK-35661", "OBJECT_ID": "2025-257H", "EPOCH": "2025-12-09T03:01:29.608896", "MEAN_MOTION": 15.39623682, "ECCENTRICITY": 0.00010382, "INCLINATION": 53.1594, "RA_OF_ASC_NODE": 281.5253, "ARG_OF_PERICENTER": 87.1065, "MEAN_ANOMALY": 273.0059, "EPHEMERIS_TYPE": 0, "CLASSIFICATION_TYPE": "U", "NORAD_CAT_ID": 66387, "ELEMENT_SET_NO": 999, "REV_AT_EPOCH": 581, "BSTAR": 0.0012949213, "MEAN_MOTION_DOT": 0.00051755, "MEAN_MOTION_DDOT": 0}, "tle": {"line1": "1 66387U 25257H   25343.12603714  .00051755  00000+0  12949-2 0  9991", "line2": "2 66387  53.1594 281.5253 0001038  87.1065 273.0059 15.39623682  5819"}}, "geometry": {"type": "Point", "coordinates": [124.44820412584963, -29.638168880975897]}}, {"type": "Feature", "properties": {"norad_id": 66388, "name": "STARLINK-35647", "group": "last-30-days", "lat": -44.78600210188508, "lon": 147.24007847016924, "alt_km": 452.4453037510184, "timestamp": "2025-12-09T14:52:24.940085+00:00", "meta": {"OBJECT_NAME": "STARLINK-35647", "OBJECT_ID": "2025-257J", "EPOCH": "2025-12-09T02:55:18.643584", "MEAN_MOTION": 15.39514665, "ECCENTRICITY": 0.00010774, "INCLINATION": 53.1581, "RA_OF_ASC_NODE": 281.4976, "ARG_OF_PERICENTER": 1.9018, "MEAN_ANOMALY": 358.1991, "EPHEMERIS_TYPE": 0, "CLASSIFICATION_TYPE": "U", "NORAD_CAT_ID": 66388, "ELEMENT_SET_NO": 999, "REV_AT_EPOCH": 581, "BSTAR": 0.00049045529, "MEAN_MOTION_DOT": 0.000192, "MEAN_MOTION_DDOT": 0}, "tle": {"line1": "1 66388U 25257J   25343.12174356  .00019200  00000+0  49046-3 0  9995", "line2": "2 66388  53.1581 281.4976 0001077   1.9018 358.1991 15.39514665  5812"}}, "geometry": {"type": "Point", "coordinates": [147.24007847016924, -44.78600210188508]}}, {"type": "Feature", "properties": {"norad_id": 66389, "name": "STARLINK-35694", "group": "last-30-days", "lat": -53.13873315786265, "lon": -171.57515381034054, "alt_km": 452.4539312077204, "timestamp": "2025-12-09T14:52:24.940097+00:00", "meta": {"OBJECT_NAME": "STARLINK-35694", "OBJECT_ID": "2025-257K", "EPOCH": "2025-12-09T02:48:07.134336", "MEAN_MOTION": 15.39618543, "ECCENTRICITY": 8.85e-05, "INCLINATION": 53.1601, "RA_OF_ASC_NODE": 281.4644, "ARG_OF_PERICENTER": 95.9598, "MEAN_ANOMALY": 264.1508, "EPHEMERIS_TYPE": 0, "CLASSIFICATION_TYPE": "U", "NORAD_CAT_ID": 66389, "ELEMENT_SET_NO": 999, "REV_AT_EPOCH": 581, "BSTAR": 0.0016910395, "MEAN_MOTION_DOT": 0.00067841, "MEAN_MOTION_DDOT": 0}, "tle": {"line1": "1 66389U 25257K   25343.11674924  .00067841  00000+0  16910-2 0  9998", "line2": "2 66389  53.1601 281.4644 0000885  95.9598 264.1508 15.39618543  5810"}}, "geometry": {"type": "Point", "coordinates": [-171.57515381034054, -53.13873315786265]}}]}